{
  "type": "FeatureCollection",
  "features": [
    {
      "type": "Feature",
      "properties": {
        "norad_id": 33791,
        "name": "COSMOS 2251 DEB",
        "group": "cosmos-2251-debris",
        "lat": -35.87200164618311,
        "lon": -127.20500933780359,
        "alt_km": 733.8787716102606,
        "timestamp": "2025-12-10T21:43:22.483610+00:00",
        "meta_object_name": "COSMOS 2251 DEB",
        "meta_object_id": "1993-036AG",
        "meta_epoch": "2025-12-10T14:47:20.821344",
        "meta_mean_motion": 14.43105665,
        "meta_eccentricity": 0.00305427,
        "meta_inclination": 74.1752,
        "meta_ra_of_asc_node": 41.4915,
        "meta_arg_of_pericenter": 239.1002,
        "meta_mean_anomaly": 278.1343,
        "meta_ephemeris_type": 0,
        "meta_classification_type": "U",
        "meta_norad_cat_id": 33791,
        "meta_element_set_no": 999,
        "meta_rev_at_epoch": 88021,
        "meta_bstar": 0.001147795,
        "meta_mean_motion_dot": 3.85e-05,
        "meta_mean_motion_ddot": 0,
        "tle_line1": "1 33791U 93036AG  25344.61621321  .00003850  00000+0  11478-2 0  9992",
        "tle_line2": "2 33791  74.1752  41.4915 0030542 239.1002 278.1343 14.43105665880218"
      },
      "geometry": {
        "type": "Point",
        "coordinates": [
          -127.20500933780359,
          -35.87200164618311
        ]
      }
    },
    {
      "type": "Feature",
      "properties": {
        "norad_id": 33792,
        "name": "COSMOS 2251 DEB",
        "group": "cosmos-2251-debris",
        "lat": -11.22436849128106,
        "lon": 171.55968669822823,
        "alt_km": 1323.3924270435245,
        "timestamp": "2025-12-10T21:43:22.483620+00:00",
        "meta_object_name": "COSMOS 2251 DEB",
        "meta_object_id": "1993-036AH",
        "meta_epoch": "2025-12-10T10:48:32.423328",
        "meta_mean_motion": 13.45817113,
        "meta_eccentricity": 0.04269753,
        "meta_inclination": 73.9009,
        "meta_ra_of_asc_node": 349.0002,
        "meta_arg_of_pericenter": 54.0784,
        "meta_mean_anomaly": 91.7571,
        "meta_ephemeris_type": 0,
        "meta_classification_type": "U",
        "meta_norad_cat_id": 33792,
        "meta_element_set_no": 999,
        "meta_rev_at_epoch": 82411,
        "meta_bstar": 0.0010381923,
        "meta_mean_motion_dot": 1.056e-05,
        "meta_mean_motion_ddot": 0,
        "tle_line1": "1 33792U 93036AH  25344.45037527  .00001056  00000+0  10382-2 0  9993",
        "tle_line2": "2 33792  73.9009 349.0002 0426975  54.0784  91.7571 13.45817113824113"
      },
      "geometry": {
        "type": "Point",
        "coordinates": [
          171.55968669822823,
          -11.22436849128106
        ]
      }
    },
    {
      "type": "Feature",
      "properties": {
        "norad_id": 33793,
        "name": "COSMOS 2251 DEB",
        "group": "cosmos-2251-debris",
        "lat": -21.34307815293095,
        "lon": -20.301770447647247,
        "alt_km": 815.1492014161304,
        "timestamp": "2025-12-10T21:43:22.483631+00:00",
        "meta_object_name": "COSMOS 2251 DEB",
        "meta_object_id": "1993-036AJ",
        "meta_epoch": "2025-12-09T21:56:10.112352",
        "meta_mean_motion": 14.27706846,
        "meta_eccentricity": 0.00784218,
        "meta_inclination": 73.9806,
        "meta_ra_of_asc_node": 155.0532,
        "meta_arg_of_pericenter": 305.7116,
        "meta_mean_anomaly": 205.2473,
        "meta_ephemeris_type": 0,
        "meta_classification_type": "U",
        "meta_norad_cat_id": 33793,
        "meta_element_set_no": 999,
        "meta_rev_at_epoch": 87166,
        "meta_bstar": 0.00094289688,
        "meta_mean_motion_dot": 2.377e-05,
        "meta_mean_motion_ddot": 0,
        "tle_line1": "1 33793U 93036AJ  25343.91400593  .00002377  00000+0  94290-3 0  9999",
        "tle_line2": "2 33793  73.9806 155.0532 0078421 305.7116 205.2473 14.27706846871662"
      },
      "geometry": {
        "type": "Point",
        "coordinates": [
          -20.301770447647247,
          -21.34307815293095
        ]
      }
    },
    {
      "type": "Feature",
      "properties": {
        "norad_id": 33795,
        "name": "COSMOS 2251 DEB",
        "group": "cosmos-2251-debris",
        "lat": -3.769108565922436,
        "lon": 79.41794654542075,
        "alt_km": 574.9735597386452,
        "timestamp": "2025-12-10T21:43:22.483642+00:00",
        "meta_object_name": "COSMOS 2251 DEB",
        "meta_object_id": "1993-036AL",
        "meta_epoch": "2025-12-10T15:39:45.255168",
        "meta_mean_motion": 15.05389642,
        "meta_eccentricity": 0.00317373,
        "meta_inclination": 74.0322,
        "meta_ra_of_asc_node": 81.0162,
        "meta_arg_of_pericenter": 165.2203,
        "meta_mean_anomaly": 263.154,
        "meta_ephemeris_type": 0,
        "meta_classification_type": "U",
        "meta_norad_cat_id": 33795,
        "meta_element_set_no": 999,
        "meta_rev_at_epoch": 89990,
        "meta_bstar": 0.0021147118,
        "meta_mean_motion_dot": 0.00030765,
        "meta_mean_motion_ddot": 0,
        "tle_line1": "1 33795U 93036AL  25344.65260712  .00030765  00000+0  21147-2 0  9992",
        "tle_line2": "2 33795  74.0322  81.0162 0031737 165.2203 263.1540 15.05389642899904"
      },
      "geometry": {
        "type": "Point",
        "coordinates": [
          79.41794654542075,
          -3.769108565922436
        ]
      }
    },
    {
      "type": "Feature",
      "properties": {
        "norad_id": 33797,
        "name": "COSMOS 2251 DEB",
        "group": "cosmos-2251-debris",
        "lat": 47.263281271417476,
        "lon": -159.58731235393083,
        "alt_km": 652.6737794991441,
        "timestamp": "2025-12-10T21:43:22.483653+00:00",
        "meta_object_name": "COSMOS 2251 DEB",
        "meta_object_id": "1993-036AN",
        "meta_epoch": "2025-12-10T15:15:12.315744",
        "meta_mean_motion": 14.57835191,
        "meta_eccentricity": 0.00607796,
        "meta_inclination": 74.0478,
        "meta_ra_of_asc_node": 38.9581,
        "meta_arg_of_pericenter": 127.4955,
        "meta_mean_anomaly": 28.4464,
        "meta_ephemeris_type": 0,
        "meta_classification_type": "U",
        "meta_norad_cat_id": 33797,
        "meta_element_set_no": 999,
        "meta_rev_at_epoch": 88954,
        "meta_bstar": 0.00065345994,
        "meta_mean_motion_dot": 3.04e-05,
        "meta_mean_motion_ddot": 0,
        "tle_line1": "1 33797U 93036AN  25344.63555921  .00003040  00000+0  65346-3 0  9997",
        "tle_line2": "2 33797  74.0478  38.9581 0060779 127.4955  28.4464 14.57835191889543"
      },
      "geometry": {
        "type": "Point",
        "coordinates": [
          -159.58731235393083,
          47.263281271417476
        ]
      }
    },
    {
      "type": "Feature",
      "properties": {
        "norad_id": 33798,
        "name": "COSMOS 2251 DEB",
        "group": "cosmos-2251-debris",
        "lat": 72.8055026431283,
        "lon": -108.4282268401721,
        "alt_km": 799.4410621402385,
        "timestamp": "2025-12-10T21:43:22.483663+00:00",
        "meta_object_name": "COSMOS 2251 DEB",
        "meta_object_id": "1993-036AP",
        "meta_epoch": "2025-12-10T11:23:32.584416",
        "meta_mean_motion": 14.44609981,
        "meta_eccentricity": 0.00924831,
        "meta_inclination": 74.0278,
        "meta_ra_of_asc_node": 140.1241,
        "meta_arg_of_pericenter": 261.9752,
        "meta_mean_anomaly": 117.0911,
        "meta_ephemeris_type": 0,
        "meta_classification_type": "U",
        "meta_norad_cat_id": 33798,
        "meta_element_set_no": 999,
        "meta_rev_at_epoch": 88561,
        "meta_bstar": 0.00027044387,
        "meta_mean_motion_dot": 9.57e-06,
        "meta_mean_motion_ddot": 0,
        "tle_line1": "1 33798U 93036AP  25344.47468269  .00000957  00000+0  27044-3 0  9995",
        "tle_line2": "2 33798  74.0278 140.1241 0092483 261.9752 117.0911 14.44609981885615"
      },
      "geometry": {
        "type": "Point",
        "coordinates": [
          -108.4282268401721,
          72.8055026431283
        ]
      }
    },
    {
      "type": "Feature",
      "properties": {
        "norad_id": 33799,
        "name": "COSMOS 2251 DEB",
        "group": "cosmos-2251-debris",
        "lat": 64.9472015807034,
        "lon": -132.37564583159894,
        "alt_km": 612.840715832006,
        "timestamp": "2025-12-10T21:43:22.483674+00:00",
        "meta_object_name": "COSMOS 2251 DEB",
        "meta_object_id": "1993-036AQ",
        "meta_epoch": "2025-12-10T10:13:24.685824",
        "meta_mean_motion": 14.79522867,
        "meta_eccentricity": 0.00236194,
        "meta_inclination": 74.032,
        "meta_ra_of_asc_node": 86.3428,
        "meta_arg_of_pericenter": 157.8211,
        "meta_mean_anomaly": 280.9118,
        "meta_ephemeris_type": 0,
        "meta_classification_type": "U",
        "meta_norad_cat_id": 33799,
        "meta_element_set_no": 999,
        "meta_rev_at_epoch": 88777,
        "meta_bstar": 0.0017797654,
        "meta_mean_motion_dot": 0.00013369,
        "meta_mean_motion_ddot": 0,
        "tle_line1": "1 33799U 93036AQ  25344.42598016  .00013369  00000+0  17798-2 0  9990",
        "tle_line2": "2 33799  74.0320  86.3428 0023619 157.8211 280.9118 14.79522867887773"
      },
      "geometry": {
        "type": "Point",
        "coordinates": [
          -132.37564583159894,
          64.9472015807034
        ]
      }
    }
  ]
}